LEMUR-2-DEMBITZ         
1 42842U 17042T   26068.47492167  .00020231  00000+0  76561-3 0  9991
2 42842  97.3807 250.9241 0006961  17.1421 343.0051 15.26947128473114
STARLINK-36475          
1 67350U 26003S   26068.47483562  .00031889  00000+0  11626-2 0  9999
2 67350  43.0003 228.0452 0002750 293.0154  67.0408 15.27598575  8797
